61603,ONEWEB-0697,2024,97.11,-1.0,+,86.57,Active,0,LEO,USA,UK,Unknown,Unknown,Unknown,1 61603U 24188K   24345.94816091  .00003688  00000+0  45203-3 0  9996,2 61603  86.5703 148.2847 0004252  79.0347 281.1354 14.82890011  8909,14.82890011,0.0004252,LEO
61604,ONEWEB-0698,2024,97.11,-1.0,+,86.58,Active,0,LEO,USA,UK,Unknown,Unknown,Unknown,1 61604U 24188L   24345.93367703  .00003644  00000+0  44650-3 0  9994,2 61604  86.5780 148.3058 0006826  57.2951 302.8930 14.82890987 10634,14.82890987,0.0006826,LEO
61605,ONEWEB-0699,2024,101.42,-1.0,+,87.06,Active,0,LEO,USA,UK,Unknown,Unknown,Unknown,1 61605U 24188M   24346.16668981 -.01231798  00000+0 -63845+0 0  9992,2 61605  87.0660 149.6958 0003306  74.3529 271.4850 14.18349132  8709,14.18349132,0.0003306,LEO
61606,ONEWEB-0700,2024,101.59,-1.0,+,87.05,Active,0,LEO,USA,UK,Unknown,Unknown,Unknown,1 61606U 24188N   24345.91667824 -.01261615  00000+0 -67786+0 0  9999,2 61606  87.0538 149.7831 0003278  55.9243  49.0278 14.16502996  5618,14.16502996,0.0003278,LEO
61607,ONEWEB-0701,2024,101.43,-1.0,+,87.06,Active,0,LEO,USA,UK,Unknown,Unknown,Unknown,1 61607U 24188P   24346.16668981 -.01271450  00000+0 -66192+0 0  9991,2 61607  87.0702 149.6744 0005446  40.6308  60.4824 14.18219484  8904,14.18219484,0.0005446,LEO
61608,ONEWEB-0702,2024,97.11,-1.0,+,86.58,Active,0,LEO,USA,UK,Unknown,Unknown,Unknown,1 61608U 24188Q   24345.93962802  .00003881  00000+0  47530-3 0  9992,2 61608  86.5799 148.3180 0006829  56.5223 303.6652 14.82929463 10633,14.82929463,0.0006829,LEO
61609,ONEWEB-0704,2024,101.56,-1.0,+,87.06,Active,0,LEO,USA,UK,Unknown,Unknown,Unknown,1 61609U 24188R   24345.91667824 -.01188152  00000+0 -63017+0 0  9999,2 61609  87.0619 149.8238 0004183  90.0848 308.5205 14.16990767  5687,14.16990767,0.0004183,LEO
61610,ONEWEB-0705,2024,101.19,-1.0,+,87.07,Active,0,LEO,USA,UK,Unknown,Unknown,Unknown,1 61610U 24188S   24346.16668981 -.01069070  00000+0 -52076+0 0  9994,2 61610  87.0785 149.6071 0006020  77.7519 214.0954 14.21718569  8853,14.21718569,0.000602,LEO
